NORAD_CAT_ID,OBJECT_NAME,OBJECT_TYPE,EPOCH,MEAN_MOTION,ECCENTRICITY,INCLINATION,RA_OF_ASC_NODE,ARG_OF_PERICENTER,MEAN_ANOMALY,BSTAR,MEAN_MOTION_DOT,MEAN_MOTION_DDOT,TLE_LINE0,TLE_LINE1,TLE_LINE2,SEMIMAJOR_AXIS,PERIOD,APOGEE,PERIGEE,DECAYED
50167.0,STARLINK-3271,PAYLOAD,2024-03-05 21:02:40,15.08842781,0.0001612,53.2181,313.3447,91.4445,268.6732,-9.5699e-05,-1.811e-05,0.0,0 STARLINK-3271,1 50167U 21125M   24065.87685702 -.00001811  00000-0 -95699-4 0  9995,2 50167  53.2181 313.3447 0001612  91.4445 268.6732 15.08842781125199,6917.872,95.437,540.852,538.622,0.0
50167.0,STARLINK-3271,PAYLOAD,2024-03-06 22:28:49,15.08845011,0.0001206,53.216,308.5856,84.6947,275.4183,0.000131,1.798e-05,0.0,0 STARLINK-3271,1 50167U 21125M   24066.93668816  .00001798  00000-0  13100-3 0  9998,2 50167  53.2160 308.5856 0001206  84.6947 275.4183 15.08845011125359,6917.865,95.437,540.564,538.896,0.0
50167.0,STARLINK-3271,PAYLOAD,2024-03-07 09:36:31,15.08848888,0.0001438,53.2176,306.5049,94.6533,265.4623,5.6763e-05,6.16e-06,0.0,0 STARLINK-3271,1 50167U 21125M   24067.40036675  .00000616  00000-0  56763-4 0  9994,2 50167  53.2176 306.5049 0001438  94.6533 265.4623 15.08848888125901,6917.853,95.437,540.713,538.723,0.0
50167.0,STARLINK-3271,PAYLOAD,2024-03-08 15:48:52,15.08848771,0.0001624,53.2196,300.853,102.3702,257.7472,-0.00012269,-2.241e-05,0.0,0 STARLINK-3271,1 50167U 21125M   24068.65893866 -.00002241  00000-0 -12269-3 0  9995,2 50167  53.2196 300.8530 0001624 102.3702 257.7472 15.08848771125612,6917.854,95.437,540.842,538.595,0.0
50167.0,STARLINK-3271,PAYLOAD,2024-03-09 01:21:11,15.08835247,0.0001623,53.22,299.0685,108.2141,251.9028,-0.00014346,-2.57e-05,0.0,0 STARLINK-3271,1 50167U 21125M   24069.05638644 -.00002570  00000-0 -14346-3 0  9994,2 50167  53.2200 299.0685 0001623 108.2141 251.9028 15.08835247125672,6917.895,95.438,540.883,538.637,0.0
50167.0,STARLINK-3271,PAYLOAD,2024-03-10 07:33:29,15.08847691,0.0001256,53.2179,293.4255,4.553,355.5473,0.00013353,1.838e-05,0.0,0 STARLINK-3271,1 50167U 21125M   24070.31492984  .00001838  00000-0  13353-3 0  9991,2 50167  53.2179 293.4255 0001256   4.5530 355.5473 15.08847691125862,6917.857,95.437,540.591,538.853,0.0
50167.0,STARLINK-3271,PAYLOAD,2024-03-10 21:52:03,15.0878708,2.22e-05,53.218,290.7446,327.7376,32.3603,-0.00041001,-6.797e-05,0.0,0 STARLINK-3271,1 50167U 21125M   24070.91114636 -.00006797  00000-0 -41001-3 0  9994,2 50167  53.2180 290.7446 0000222 327.7376  32.3603 15.08787080125956,6918.042,95.441,540.061,539.754,0.0
50167.0,STARLINK-3271,PAYLOAD,2024-03-11 13:45:51,15.08836374,0.0001533,53.2163,287.7708,81.3964,278.7202,1.3053e-06,-2.67e-06,0.0,0 STARLINK-3271,1 50167U 21125M   24071.57351696 -.00000267  00000-0  13053-5 0  9999,2 50167  53.2163 287.7708 0001533  81.3964 278.7202 15.08836374126050,6917.891,95.438,540.817,538.696,0.0
50167.0,STARLINK-3271,PAYLOAD,2024-03-12 00:53:32,15.08834455,0.0001357,53.2164,285.6895,84.1809,275.9338,0.00025459,3.766e-05,0.0,0 STARLINK-3271,1 50167U 21125M   24072.03718593  .00003766  00000-0  25459-3 0  9991,2 50167  53.2164 285.6895 0001357  84.1809 275.9338 15.08834455126123,6917.897,95.438,540.701,538.824,0.0
50167.0,STARLINK-3271,PAYLOAD,2024-03-12 07:15:05,15.08836734,0.000125,53.2157,284.4994,74.7374,285.3756,0.00026212,3.886e-05,0.0,0 STARLINK-3271,1 50167U 21125M   24072.30214550  .00003886  00000-0  26212-3 0  9996,2 50167  53.2157 284.4994 0001250  74.7374 285.3756 15.08836734126644,6917.89,95.438,540.62,538.891,0.0
50167.0,STARLINK-3271,PAYLOAD,2024-03-13 07:05:54,15.0882111,0.0002134,53.2166,280.0415,80.5733,279.55,0.00023676,3.48e-05,0.0,0 STARLINK-3271,1 50167U 21125M   24073.29577201  .00003480  00000-0  23676-3 0  9991,2 50167  53.2166 280.0415 0002134  80.5733 279.5500 15.08821110126318,6917.938,95.439,541.279,538.327,0.0
50167.0,STARLINK-3271,PAYLOAD,2024-03-14 13:18:11,15.08847352,5.45e-05,53.2191,274.3912,285.9138,74.1794,0.00011238,1.502e-05,0.0,0 STARLINK-3271,1 50167U 21125M   24074.55430264  .00001502  00000-0  11238-3 0  9992,2 50167  53.2191 274.3912 0000545 285.9138  74.1794 15.08847352126509,6917.858,95.437,540.1,539.346,0.0
50167.0,STARLINK-3271,PAYLOAD,2024-03-14 19:39:44,15.08852569,0.0001442,53.2167,273.2002,81.2032,278.9124,0.00014376,2.001e-05,0.0,0 STARLINK-3271,1 50167U 21125M   24074.81926276  .00002001  00000-0  14376-3 0  9995,2 50167  53.2167 273.2002 0001442  81.2032 278.9124 15.08852569127022,6917.842,95.437,540.705,538.709,0.0
50167.0,STARLINK-3271,PAYLOAD,2024-03-15 22:41:18,15.08842263,0.000141,53.2165,268.1455,78.6313,281.4838,0.00019201,2.769e-05,0.0,0 STARLINK-3271,1 50167U 21125M   24075.94535550  .00002769  00000-0  19201-3 0  9994,2 50167  53.2165 268.1455 0001410  78.6313 281.4838 15.08842263127191,6917.873,95.437,540.714,538.763,0.0
50167.0,STARLINK-3271,PAYLOAD,2024-03-16 22:32:04,15.08840492,0.0001423,53.2161,263.6837,103.9364,256.1786,-1.0947e-05,-4.62e-06,0.0,0 STARLINK-3271,1 50167U 21125M   24076.93894654 -.00000462  00000-0 -10947-4 0  9996,2 50167  53.2161 263.6837 0001423 103.9364 256.1786 15.08840492127343,6917.879,95.438,540.728,538.759,0.0
50167.0,STARLINK-3271,PAYLOAD,2024-03-17 12:50:33,15.08833403,0.0001329,53.2175,261.0056,104.8939,255.22,6.3823e-05,7.28e-06,0.0,0 STARLINK-3271,1 50167U 21125M   24077.53510805  .00000728  00000-0  63823-4 0  9990,2 50167  53.2175 261.0056 0001329 104.8939 255.2200 15.08833403126957,6917.901,95.438,540.685,538.846,0.0
50167.0,STARLINK-3271,PAYLOAD,2024-03-17 19:12:05,15.08834351,0.000131,53.2172,259.8165,100.5784,259.5356,6.6345e-05,7.68e-06,0.0,0 STARLINK-3271,1 50167U 21125M   24077.80006878  .00000768  00000-0  66345-4 0  9996,2 50167  53.2172 259.8165 0001310 100.5784 259.5356 15.08834351127471,6917.898,95.438,540.669,538.856,0.0
50167.0,STARLINK-3271,PAYLOAD,2024-03-18 20:38:16,15.08838651,0.0001244,53.2171,255.0577,92.5259,267.5875,9.0531e-05,1.153e-05,0.0,0 STARLINK-3271,1 50167U 21125M   24078.85990851  .00001153  00000-0  90531-4 0  9998,2 50167  53.2171 255.0577 0001244  92.5259 267.5875 15.08838651127155,6917.885,95.438,540.61,538.889,0.0
50167.0,STARLINK-3271,PAYLOAD,2024-03-19 10:56:50,15.08770316,0.0002837,53.2172,252.3875,74.4149,285.7156,-0.00042055,-6.963e-05,0.0,0 STARLINK-3271,1 50167U 21125M   24079.45614484 -.00006963  00000-0 -42055-3 0  9993,2 50167  53.2172 252.3875 0002837  74.4149 285.7156 15.08770316127723,6918.093,95.442,541.921,537.996,0.0
50167.0,STARLINK-3271,PAYLOAD,2024-03-19 18:53:42,15.08839602,0.0001269,53.217,250.8973,86.2917,273.8221,0.00017563,2.508e-05,0.0,0 STARLINK-3271,1 50167U 21125M   24079.78729569  .00002508  00000-0  17563-3 0  9995,2 50167  53.2170 250.8973 0001269  86.2917 273.8221 15.08839602127292,6917.882,95.438,540.624,538.869,0.0
50167.0,STARLINK-3271,PAYLOAD,2024-03-20 10:47:31,15.08413177,0.0003244,53.2164,247.9208,137.2879,222.8366,0.006039,0.00096012,0.0,0 STARLINK-3271,1 50167U 21125M   24080.44967205  .00096012  00000-0  60390-2 0  9999,2 50167  53.2164 247.9208 0003244 137.2879 222.8366 15.08413177127392,6919.185,95.465,543.295,538.806,0.0
50167.0,STARLINK-3271,PAYLOAD,2024-03-20 18:44:28,15.08833978,0.000231,53.2175,246.4422,67.3236,292.8,0.00087077,0.00013595,0.0,0 STARLINK-3271,1 50167U 21125M   24080.78088030  .00013595  00000-0  87077-3 0  9993,2 50167  53.2175 246.4422 0002310  67.3236 292.8000 15.08833978127442,6917.899,95.438,541.362,538.166,0.0
50167.0,STARLINK-3271,PAYLOAD,2024-03-21 10:38:20,15.08843352,0.000143,53.2157,243.4601,116.265,243.849,-0.00030604,-5.156e-05,0.0,0 STARLINK-3271,1 50167U 21125M   24081.44329251 -.00005156  00000-0 -30604-3 0  9990,2 50167  53.2157 243.4601 0001430 116.2650 243.8490 15.08843352127541,6917.87,95.437,540.724,538.746,0.0
50167.0,STARLINK-3271,PAYLOAD,2024-03-21 16:59:53,15.08840572,0.0001337,53.2157,242.2733,104.3708,255.7432,-0.0002709,-4.597e-05,0.0,0 STARLINK-3271,1 50167U 21125M   24081.70825375 -.00004597  00000-0 -27090-3 0  9990,2 50167  53.2157 242.2733 0001337 104.3708 255.7432 15.08840572128069,6917.879,95.438,540.669,538.819,0.0
50167.0,STARLINK-3271,PAYLOAD,2024-03-22 10:29:06,15.08851663,0.0001535,53.2171,238.9995,130.6814,229.4311,-0.00019742,-3.43e-05,0.0,0 STARLINK-3271,1 50167U 21125M   24082.43687940 -.00003430  00000-0 -19742-3 0  9995,2 50167  53.2171 238.9995 0001535 130.6814 229.4311 15.08851663127692,6917.845,95.437,540.772,538.648,0.0
50167.0,STARLINK-3271,PAYLOAD,2024-03-22 13:39:52,15.08855111,0.0001203,53.2153,238.4078,108.179,251.9333,0.00019003,2.739e-05,0.0,0 STARLINK-3271,1 50167U 21125M   24082.56935929  .00002739  00000-0  19003-3 0  9991,2 50167  53.2153 238.4078 0001203 108.1790 251.9333 15.08855111128196,6917.834,95.437,540.531,538.867,0.0
50167.0,STARLINK-3271,PAYLOAD,2024-03-22 20:01:25,15.08870043,0.0001296,53.216,237.2175,106.6156,253.4979,0.001426,0.00022498,0.0,0 STARLINK-3271,1 50167U 21125M   24082.83431978  .00022498  00000-0  14260-2 0  9999,2 50167  53.2160 237.2175 0001296 106.6156 253.4979 15.08870043128239,6917.789,95.436,540.55,538.757,0.0
50167.0,STARLINK-3271,PAYLOAD,2024-03-23 13:30:39,15.08860413,0.0002028,53.2143,233.9406,129.8676,230.2495,0.0010212,0.00016011,0.0,0 STARLINK-3271,1 50167U 21125M   24083.56295418  .00016011  00000-0  10212-2 0  9994,2 50167  53.2143 233.9406 0002028 129.8676 230.2495 15.08860413127862,6917.818,95.436,541.086,538.28,0.0
50167.0,STARLINK-3271,PAYLOAD,2024-03-23 16:41:25,15.08854217,9.93e-05,53.2151,233.345,97.5066,262.6039,0.00022307,3.265e-05,0.0,0 STARLINK-3271,1 50167U 21125M   24083.69543457  .00003265  00000-0  22307-3 0  9993,2 50167  53.2151 233.3450 0000993  97.5066 262.6039 15.08854217127887,6917.837,95.437,540.389,539.015,0.0
50167.0,STARLINK-3271,PAYLOAD,2024-03-24 13:21:26,15.08848705,0.0001284,53.2159,229.4825,101.992,258.1216,-4.1069e-05,-9.42e-06,0.0,0 STARLINK-3271,1 50167U 21125M   24084.55655183 -.00000942  00000-0 -41069-4 0  9997,2 50167  53.2159 229.4825 0001284 101.9920 258.1216 15.08848705128018,6917.854,95.437,540.607,538.831,0.0
